start=new Date('2023-05-04T00:00:00.000Z').valueOf();
sats=[{"MEAN_ELEMENT_THEORY":"SGP4","RA_OF_ASC_NODE":"126.1276","REV_AT_EPOCH":"10825","MEAN_MOTION_DOT":"0.00004053","OBJECT_TYPE":"PAYLOAD","APOAPSIS":"548.181","ELEMENT_SET_NO":"999","OBJECT_ID":"2021-041AN","OBJECT_NAME":"STARLINK-2245","BSTAR":"0.00029079000000","CENTER_NAME":"EARTH","MEAN_MOTION":"15.06405910","LAUNCH_DATE":"2021-05-15","SEMIMAJOR_AXIS":"6925.330","TLE_LINE1":"1 48589U 21041AN  23123.40452582  .00004053  00000-0  29079-3 0  9995","ARG_OF_PERICENTER":"94.3986","REF_FRAME":"TEME","COUNTRY_CODE":"US","MEAN_ANOMALY":"265.7166","EPHEMERIS_TYPE":"0","TIME_SYSTEM":"UTC","ECCENTRICITY":"0.00014230","NORAD_CAT_ID":"48589","INCLINATION":"53.0526","DECAY_DATE":null,"CLASSIFICATION_TYPE":"U","EPOCH":"2023-05-03T09:42:31.030848","RCS_SIZE":"LARGE","SITE":"AFETR","GP_ID":"231165915","FILE":"3899966","PERIOD":"95.592","MEAN_MOTION_DDOT":"0.0000000000000","PERIAPSIS":"546.210","TLE_LINE2":"2 48589  53.0526 126.1276 0001423  94.3986 265.7166 15.06405910108251"},{"OBJECT_ID":"2021-041AQ","OBJECT_NAME":"STARLINK-2248","BSTAR":"0.00029194000000","MEAN_MOTION":"15.06408386","CENTER_NAME":"EARTH","OBJECT_TYPE":"PAYLOAD","MEAN_MOTION_DOT":"0.00004070","MEAN_ELEMENT_THEORY":"SGP4","RA_OF_ASC_NODE":"125.5994","REV_AT_EPOCH":"10917","ELEMENT_SET_NO":"999","APOAPSIS":"548.430","SITE":"AFETR","RCS_SIZE":"LARGE","CLASSIFICATION_TYPE":"U","DECAY_DATE":null,"EPOCH":"2023-05-03T12:31:00.393312","MEAN_MOTION_DDOT":"0.0000000000000","GP_ID":"231164185","PERIOD":"95.592","FILE":"3899966","ECCENTRICITY":"0.00017940","INCLINATION":"53.0529","NORAD_CAT_ID":"48591","TLE_LINE2":"2 48591  53.0529 125.5994 0001794  87.4135 272.7059 15.06408386109178","PERIAPSIS":"545.945","ARG_OF_PERICENTER":"87.4135","TLE_LINE1":"1 48591U 21041AQ  23123.52153233  .00004070  00000-0  29194-3 0  9999","REF_FRAME":"TEME","LAUNCH_DATE":"2021-05-15","SEMIMAJOR_AXIS":"6925.323","TIME_SYSTEM":"UTC","COUNTRY_CODE":"US","MEAN_ANOMALY":"272.7059","EPHEMERIS_TYPE":"0"},{"OBJECT_ID":"2021-041AR","OBJECT_NAME":"STARLINK-2249","BSTAR":"0.00043589000000","MEAN_MOTION":"15.06401655","CENTER_NAME":"EARTH","MEAN_MOTION_DOT":"0.00006217","MEAN_ELEMENT_THEORY":"SGP4","RA_OF_ASC_NODE":"135.8796","REV_AT_EPOCH":"10842","OBJECT_TYPE":"PAYLOAD","APOAPSIS":"548.126","ELEMENT_SET_NO":"999","ECCENTRICITY":"0.00013250","INCLINATION":"53.0525","NORAD_CAT_ID":"48592","RCS_SIZE":"MEDIUM","SITE":"AFETR","DECAY_DATE":null,"EPOCH":"2023-05-03T11:10:03.546912","CLASSIFICATION_TYPE":"U","MEAN_MOTION_DDOT":"0.0000000000000","FILE":"3899760","GP_ID":"231139214","PERIOD":"95.592","PERIAPSIS":"546.291","TLE_LINE2":"2 48592  53.0525 135.8796 0001325  87.5199 272.5942 15.06401655108428","LAUNCH_DATE":"2021-05-15","SEMIMAJOR_AXIS":"6925.343","ARG_OF_PERICENTER":"87.5199","TLE_LINE1":"1 48592U 21041AR  23123.46531883  .00006217  00000-0  43589-3 0  9993","REF_FRAME":"TEME","COUNTRY_CODE":"US","EPHEMERIS_TYPE":"0","MEAN_ANOMALY":"272.5942","TIME_SYSTEM":"UTC"},{"REV_AT_EPOCH":"10842","RA_OF_ASC_NODE":"135.8322","MEAN_ELEMENT_THEORY":"SGP4","MEAN_MOTION_DOT":"0.00004836","OBJECT_TYPE":"PAYLOAD","APOAPSIS":"548.169","ELEMENT_SET_NO":"999","OBJECT_NAME":"STARLINK-2250","OBJECT_ID":"2021-041AS","CENTER_NAME":"EARTH","MEAN_MOTION":"15.06413858","BSTAR":"0.00034317000000","SEMIMAJOR_AXIS":"6925.306","LAUNCH_DATE":"2021-05-15","REF_FRAME":"TEME","TLE_LINE1":"1 48593U 21041AS  23123.46994593  .00004836  00000-0  34317-3 0  9999","ARG_OF_PERICENTER":"93.4669","MEAN_ANOMALY":"266.6485","EPHEMERIS_TYPE":"0","COUNTRY_CODE":"US","TIME_SYSTEM":"UTC","NORAD_CAT_ID":"48593","INCLINATION":"53.0530","ECCENTRICITY":"0.00014410","GP_ID":"231139228","FILE":"3899758","PERIOD":"95.591","MEAN_MOTION_DDOT":"0.0000000000000","CLASSIFICATION_TYPE":"U","DECAY_DATE":null,"EPOCH":"2023-05-03T11:16:43.328352","RCS_SIZE":"LARGE","SITE":"AFETR","PERIAPSIS":"546.173","TLE_LINE2":"2 48593  53.0530 135.8322 0001441  93.4669 266.6485 15.06413858108421"},{"COUNTRY_CODE":"US","MEAN_ANOMALY":"269.9957","EPHEMERIS_TYPE":"0","TIME_SYSTEM":"UTC","LAUNCH_DATE":"2021-05-15","SEMIMAJOR_AXIS":"6925.308","TLE_LINE1":"1 48594U 21041AT  23123.36582570  .00005089  00000-0  36013-3 0  9993","ARG_OF_PERICENTER":"90.1195","REF_FRAME":"TEME","PERIAPSIS":"546.184","TLE_LINE2":"2 48594  53.0522 106.3849 0001429  90.1195 269.9957 15.06413088108531","ECCENTRICITY":"0.00014290","NORAD_CAT_ID":"48594","INCLINATION":"53.0522","CLASSIFICATION_TYPE":"U","DECAY_DATE":null,"EPOCH":"2023-05-03T08:46:47.340480","SITE":"AFETR","RCS_SIZE":"LARGE","GP_ID":"231165416","FILE":"3899966","PERIOD":"95.591","MEAN_MOTION_DDOT":"0.0000000000000","APOAPSIS":"548.163","ELEMENT_SET_NO":"999","REV_AT_EPOCH":"10853","RA_OF_ASC_NODE":"106.3849","MEAN_ELEMENT_THEORY":"SGP4","MEAN_MOTION_DOT":"0.00005089","OBJECT_TYPE":"PAYLOAD","BSTAR":"0.00036013000000","CENTER_NAME":"EARTH","MEAN_MOTION":"15.06413088","OBJECT_ID":"2021-041AT","OBJECT_NAME":"STARLINK-2251"},{"OBJECT_ID":"2021-041AU","OBJECT_NAME":"STARLINK-2252","BSTAR":"0.00008386900000","CENTER_NAME":"EARTH","MEAN_MOTION":"15.06412393","OBJECT_TYPE":"PAYLOAD","MEAN_ELEMENT_THEORY":"SGP4","REV_AT_EPOCH":"10939","RA_OF_ASC_NODE":"135.9134","MEAN_MOTION_DOT":"0.00000968","ELEMENT_SET_NO":"999","APOAPSIS":"548.228","CLASSIFICATION_TYPE":"U","DECAY_DATE":null,"EPOCH":"2023-05-03T10:50:10.558176","SITE":"AFETR","RCS_SIZE":"LARGE","GP_ID":"231139436","FILE":"3899758","PERIOD":"95.591","MEAN_MOTION_DDOT":"0.0000000000000","ECCENTRICITY":"0.00015200","NORAD_CAT_ID":"48595","INCLINATION":"53.0533","TLE_LINE2":"2 48595  53.0533 135.9134 0001520 106.2634 253.8522 15.06412393109391","PERIAPSIS":"546.123","TLE_LINE1":"1 48595U 21041AU  23123.45151109  .00000968  00000-0  83869-4 0  9997","ARG_OF_PERICENTER":"106.2634","REF_FRAME":"TEME","LAUNCH_DATE":"2021-05-15","SEMIMAJOR_AXIS":"6925.311","TIME_SYSTEM":"UTC","COUNTRY_CODE":"US","EPHEMERIS_TYPE":"0","MEAN_ANOMALY":"253.8522"},{"BSTAR":"0.00021608000000","CENTER_NAME":"EARTH","MEAN_MOTION":"15.06412802","OBJECT_ID":"2021-041AV","OBJECT_NAME":"STARLINK-2253","APOAPSIS":"548.138","ELEMENT_SET_NO":"999","REV_AT_EPOCH":"10857","MEAN_ELEMENT_THEORY":"SGP4","RA_OF_ASC_NODE":"136.1145","MEAN_MOTION_DOT":"0.00002940","OBJECT_TYPE":"PAYLOAD","PERIAPSIS":"546.211","TLE_LINE2":"2 48596  53.0515 136.1145 0001391  87.1779 272.9369 15.06412802108575","ECCENTRICITY":"0.00013910","NORAD_CAT_ID":"48596","INCLINATION":"53.0515","DECAY_DATE":null,"CLASSIFICATION_TYPE":"U","EPOCH":"2023-05-03T09:46:29.451648","RCS_SIZE":"LARGE","SITE":"AFETR","FILE":"3899966","GP_ID":"231164934","PERIOD":"95.591","MEAN_MOTION_DDOT":"0.0000000000000","COUNTRY_CODE":"US","EPHEMERIS_TYPE":"0","MEAN_ANOMALY":"272.9369","TIME_SYSTEM":"UTC","LAUNCH_DATE":"2021-05-15","SEMIMAJOR_AXIS":"6925.309","TLE_LINE1":"1 48596U 21041AV  23123.40728532  .00002940  00000-0  21608-3 0  9997","ARG_OF_PERICENTER":"87.1779","REF_FRAME":"TEME"},{"OBJECT_TYPE":"PAYLOAD","MEAN_ELEMENT_THEORY":"SGP4","REV_AT_EPOCH":"10938","RA_OF_ASC_NODE":"136.0831","MEAN_MOTION_DOT":"0.00001026","ELEMENT_SET_NO":"999","APOAPSIS":"548.168","OBJECT_ID":"2021-041AW","OBJECT_NAME":"STARLINK-2255","BSTAR":"0.00008775500000","CENTER_NAME":"EARTH","MEAN_MOTION":"15.06411293","TLE_LINE1":"1 48597U 21041AW  23123.41466057  .00001026  00000-0  87755-4 0  9990","ARG_OF_PERICENTER":"93.8608","REF_FRAME":"TEME","LAUNCH_DATE":"2021-05-15","SEMIMAJOR_AXIS":"6925.314","TIME_SYSTEM":"UTC","COUNTRY_CODE":"US","MEAN_ANOMALY":"266.2544","EPHEMERIS_TYPE":"0","DECAY_DATE":null,"CLASSIFICATION_TYPE":"U","EPOCH":"2023-05-03T09:57:06.673248","SITE":"AFETR","RCS_SIZE":"LARGE","PERIOD":"95.591","GP_ID":"231165683","FILE":"3899966","MEAN_MOTION_DDOT":"0.0000000000000","ECCENTRICITY":"0.00014280","NORAD_CAT_ID":"48597","INCLINATION":"53.0550","TLE_LINE2":"2 48597  53.0550 136.0831 0001428  93.8608 266.2544 15.06411293109386","PERIAPSIS":"546.190"},{"CENTER_NAME":"EARTH","MEAN_MOTION":"15.06412075","BSTAR":"0.00019556000000","OBJECT_NAME":"STARLINK-2256","OBJECT_ID":"2021-041AX","APOAPSIS":"548.221","ELEMENT_SET_NO":"999","MEAN_ELEMENT_THEORY":"SGP4","RA_OF_ASC_NODE":"136.0646","REV_AT_EPOCH":"10857","MEAN_MOTION_DOT":"0.00002633","OBJECT_TYPE":"PAYLOAD","PERIAPSIS":"546.132","TLE_LINE2":"2 48598  53.0525 136.0646 0001508  88.1071 272.0091 15.06412075108574","NORAD_CAT_ID":"48598","INCLINATION":"53.0525","ECCENTRICITY":"0.00015080","PERIOD":"95.591","GP_ID":"231165916","FILE":"3899966","MEAN_MOTION_DDOT":"0.0000000000000","DECAY_DATE":null,"CLASSIFICATION_TYPE":"U","EPOCH":"2023-05-03T10:02:25.164384","RCS_SIZE":"LARGE","SITE":"AFETR","MEAN_ANOMALY":"272.0091","EPHEMERIS_TYPE":"0","COUNTRY_CODE":"US","TIME_SYSTEM":"UTC","SEMIMAJOR_AXIS":"6925.312","LAUNCH_DATE":"2021-05-15","REF_FRAME":"TEME","TLE_LINE1":"1 48598U 21041AX  23123.41834681  .00002633  00000-0  19556-3 0  9991","ARG_OF_PERICENTER":"88.1071"},{"ECCENTRICITY":"0.00012430","INCLINATION":"53.0524","NORAD_CAT_ID":"48599","SITE":"AFETR","RCS_SIZE":"LARGE","EPOCH":"2023-05-03T10:40:14.449152","DECAY_DATE":null,"CLASSIFICATION_TYPE":"U","MEAN_MOTION_DDOT":"0.0000000000000","PERIOD":"95.592","GP_ID":"231164186","FILE":"3899966","PERIAPSIS":"546.330","TLE_LINE2":"2 48599  53.0524 110.9431 0001243 102.2403 257.8725 15.06407276109742","LAUNCH_DATE":"2021-05-15","SEMIMAJOR_AXIS":"6925.326","ARG_OF_PERICENTER":"102.2403","TLE_LINE1":"1 48599U 21041AY  23123.44461168  .00005490  00000-0  38708-3 0  9995","REF_FRAME":"TEME","COUNTRY_CODE":"US","EPHEMERIS_TYPE":"0","MEAN_ANOMALY":"257.8725","TIME_SYSTEM":"UTC","OBJECT_ID":"2021-041AY","OBJECT_NAME":"STARLINK-2274","BSTAR":"0.00038708000000","MEAN_MOTION":"15.06407276","CENTER_NAME":"EARTH","MEAN_MOTION_DOT":"0.00005490","RA_OF_ASC_NODE":"110.9431","REV_AT_EPOCH":"10974","MEAN_ELEMENT_THEORY":"SGP4","OBJECT_TYPE":"PAYLOAD","APOAPSIS":"548.052","ELEMENT_SET_NO":"999"}];
